SEEDS II (CO-66)        
1 32791U 08021J   26105.94065879  .00010638  00000+0  36181-3 0  9994
2 32791  97.7524 100.9750 0004249 135.7358 224.4222 15.30631348977769
YUBILEINY (RS30)        
1 32953U 08025A   26105.88887955 -.00000015  00000+0 -17795-3 0  9998
2 32953  82.5066  34.1837 0020595  86.4332 273.9103 12.43177430811955
KKS-1 (KISEKI)          
1 33499U 09002H   26105.91430755  .00000709  00000+0  94143-4 0  9997
2 33499  98.1190  27.3797 0008965 125.8870 234.3176 14.82960965926960
SWISSCUBE               
1 35932U 09051B   26105.70090575  .00000570  00000+0  12255-3 0  9993
2 35932  98.4072  12.4964 0007908  53.3281 306.8645 14.62357885880025
BEESAT-1                
1 35933U 09051C   26105.47286368  .00000476  00000+0  10571-3 0  9999
2 35933  98.4001  12.0297 0006522  67.0090 293.1798 14.61615668880026
ITUPSAT1                
1 35935U 09051E   26105.68310402  .00000438  00000+0  10059-3 0  9990
2 35935  98.4088  11.5006 0008765  74.6707 285.5461 14.60344076879611
XIWANG-1 (HOPE-1)       
1 36122U 09072B   26105.92460514  .00000179  00000+0  58413-3 0  9997
2 36122 100.3970  60.7664 0007816  20.5951 339.5476 13.16437985784811
O/OREOS (USA 219)       
1 37224U 10062C   26105.64084078  .00001330  00000+0  13210-3 0  9994
2 37224  71.9701 221.9837 0015008 193.1634 166.9147 14.93491187107300
JUGNU                   
1 37839U 11058B   26105.91414522  .00000391  00000+0  64534-4 0  9995
2 37839  19.9623 326.7542 0018610 108.8760   5.4073 14.13757246750200
SRMSAT                  
1 37841U 11058D   26105.32212332  .00000357  00000+0  49632-4 0  9992
2 37841  19.9719  79.9733 0011633 231.5218 270.0727 14.11560384748923
STRAND-1                
1 39090U 13009E   26105.88298831  .00000170  00000+0  71586-4 0  9993
2 39090  98.3911 287.6542 0009685  61.7230 298.4933 14.37125770688114
ZACUBE-1 (TSHEPISOSAT)  
1 39417U 13066B   26105.87420362  .00002122  00000+0  16912-3 0  9994
2 39417  97.8129  67.8801 0044912  99.9908 260.6388 15.00670787671385
GOMX-1                  
1 39430U 13066Q   26105.94268766  .00000826  00000+0  13185-3 0  9993
2 39430  97.6539 310.3223 0127585 277.6211  81.0521 14.69234233660778
CUBEBUG-2 (LO-74)       
1 39440U 13066AA  26105.82278029  .00001425  00000+0  13763-3 0  9992
2 39440  97.8864  54.5787 0056615 233.3182 126.2827 14.93338768667688
FUNCUBE-1 (AO-73)       
1 39444U 13066AE  26105.85963904  .00005338  00000+0  33985-3 0  9997
2 39444  97.8233  76.0625 0038548  57.5687 302.9260 15.08594905670269
UWE-3                   
1 39446U 13066AG  26105.37442508  .00001416  00000+0  12692-3 0  9993
2 39446  97.8660  61.0728 0049616 166.9952 193.2562 14.96534404668189
UNISAT-6                
1 40012U 14033C   26105.93323681  .00001517  00000+0  16910-3 0  9990
2 40012  97.7798 259.7842 0043964 273.6319  85.9870 14.87880742636900
DUCHIFAT-1              
1 40021U 14033M   26105.37959777  .00035349  00000+0  53266-3 0  9994
2 40021  98.0560 156.2644 0003069 282.3839  77.7069 15.54721406645969
QB50P1                  
1 40025U 14033R   26105.97999660  .00004853  00000+0  24719-3 0  9996
2 40025  98.0994 112.8074 0010700  81.9906 278.2539 15.17274997643591
LILACSAT-2              
1 40908U 15049K   26105.92463719  .00010691  00000+0  19623-3 0  9995
2 40908  97.4743 140.4669 0008856 114.7675 245.4498 15.49409798586107
FOX-1A (AO-85)          
1 40967U 15058D   26105.36131648  .00001294  00000+0  12852-3 0  9997
2 40967  64.7725 114.1671 0128392  81.2496 280.3132 14.90585217104203
CAS-2T & KS-1Q          
1 41847U 16066G   26105.76401528  .00000308  00000+0  53289-4 0  9991
2 41847  98.3839 182.2024 0341404 319.1244  38.4792 14.44555031495783
RADFXSAT (FOX-1B)       
1 43017U 17073E   26105.60788238  .00004169  00000+0  18790-3 0  9996
2 43017  97.4798 334.1314 0153486 183.9254 176.0786 15.11599787455933
DIWATA-2B               
1 43678U 18084H   26105.94372873  .00001260  00000+0  10603-3 0  9997
2 43678  98.1050 299.5148 0013827  18.3603 341.8116 15.00149375406888
ES'HAIL 2               
1 43700U 18090A   26105.87522655  .00000150  00000+0  00000+0 0  9990
2 43700   0.0133 246.6922 0001154 158.7559 139.4495  1.00272351 27055
FOX-1CLIFF (AO-95)      
1 43770U 18099N   26105.39031055  .00005384  00000+0  21613-3 0  9993
2 43770  97.4443 165.9179 0008659 198.8751 161.2168 15.25362872403642
ITASAT                  
1 43786U 18099AE  26105.68920708  .00003819  00000+0  18941-3 0  9995
2 43786  97.4095 158.4665 0012287 203.4333 156.6343 15.18254900403423
JY1SAT (JO-97)          
1 43803U 18099AX  26105.41771106  .00007559  00000+0  24945-3 0  9998
2 43803  97.4190 168.1153 0007338 129.4195 230.7697 15.31681942404010
UWE-4                   
1 43880U 18111E   26105.74664062  .00017542  00000+0  40669-3 0  9990
2 43880  97.5861  31.4523 0008411 170.4812 189.6596 15.42445558401143
TIANYAN 01              
1 44881U 19093C   26105.91293157  .00000512  00000+0  64024-4 0  9995
2 44881  97.7562 179.6597 0012179 295.4173  64.5781 14.86419948342169
RS-44 & BREEZE-KM R/B   
1 44909U 19096E   26105.85123305  .00000002  00000+0 -28914-4 0  9992
2 44909  82.5263  21.1254 0216457 290.2807  67.5147 12.79747907294370
SALSAT                  
1 46495U 20068K   26105.92157901  .00004464  00000+0  16187-3 0  9995
2 46495  97.8861 105.2420 0010755 151.8873 208.2948 15.28876884305844
XW-3 (CAS-9)            
1 50466U 21131B   26105.92308256  .00000127  00000+0  53078-4 0  9994
2 50466  98.4948 198.6619 0002903 291.5542  68.5338 14.41295883226140
GREENCUBE (IO-117)      
1 53109U 22080E   26104.99591879 -.00000003  00000+0  00000+0 0  9992
2 53109  70.1494 320.2325 0008873 304.1093  55.8724  6.42583330 88009
UMKA 1 (RS40S)          
1 57172U 23091G   26105.90161398  .00003184  00000+0  15029-3 0  9993
2 57172  97.5109 164.8543 0012157 343.9521  16.1327 15.20123550154542
CUBESX-HSE 3 (RS42S)    
1 57178U 23091N   26105.92819462  .00007121  00000+0  24995-3 0  9990
2 57178  97.5143 170.7904 0009628 317.4992  42.5502 15.29690505154906
MONITOR-3 (RS58S)       
1 57180U 23091Q   26105.95298335  .00005386  00000+0  20816-3 0  9995
2 57180  97.5137 168.9869 0010678 324.4973  35.5554 15.26624835154791
MONITOR-4 (RS57S)       
1 57182U 23091S   26105.93591948  .00005589  00000+0  21527-3 0  9996
2 57182  97.5132 168.9369 0010611 325.1081  34.9461 15.26719167154791
MONITOR-2 (RS39S)       
1 57184U 23091U   26105.91338625  .00002646  00000+0  13209-3 0  9996
2 57184  97.5132 164.6080 0010387 337.0528  23.0240 15.18343421154504
SVYATOBOR 1 (RS60S)     
1 57187U 23091X   26105.89902271  .00004642  00000+0  18566-3 0  9999
2 57187  97.5143 169.4072 0008226 317.5276  42.5324 15.25575580154819
VIZARD-METEO (RS38S)    
1 57189U 23091Z   26105.89288636  .00008821  00000+0  26965-3 0  9998
2 57189  97.5137 174.2139 0005936 293.6358  66.4261 15.34098415155130
NANOZOND 1 (RS49S)      
1 57190U 23091AA  26105.93875491  .01255631  10320-2  13179-2 0  9991
2 57190  97.4914 189.9005 0011755 262.5354  97.4594 16.10514752156187
POLYTECH-UNIVERSE 3 (R*)
1 57191U 23091AB  26105.94871404  .00002572  00000+0  12757-3 0  9999
2 57191  97.5107 164.1486 0015155 352.0621   8.0371 15.18539460154506
UTMN 2 (RS27S)          
1 57203U 23091AP  26105.91526936  .00006886  00000+0  23564-3 0  9997
2 57203  97.5136 172.3343 0006710 303.1743  56.8854 15.30556552155013
KUZGTU 1 (RS47S)        
1 57217U 23091AV  26105.93263064  .00006368  00000+0  23228-3 0  9996
2 57217  97.5117 169.8326 0009851 321.6334  38.4204 15.28472983154868
SONATE-2                
1 59112U 24043Q   26105.38958023  .00020168  00000+0  30914-3 0  9999
2 59112  97.5455 252.1850 0007306  77.3599 282.8471 15.54334647118121
MESAT1                  
1 60209U 24125G   26105.56389962  .00031383  00000+0  43106-3 0  9997
2 60209  97.2393 321.8855 0012576  91.9430 268.3266 15.57168736 99809
OOV-CUBE (TUBSAT-30)    
1 60240U 24128F   26105.43551288  .00001141  00000+0  99193-4 0  9990
2 60240  61.9932  84.3316 0051486 120.0340 240.5874 15.02463577 96682
COLIBRI-S (RS67S)       
1 61746U 24199M   26105.94142787  .00012771  00000+0  27047-3 0  9995
2 61746  97.3095 339.3193 0010312 138.4796 221.7239 15.45182694127792
HORS 3 (RS81S)          
1 61753U 24199U   26105.90417728  .00018846  00000+0  32624-3 0  9995
2 61753  97.3071 340.6737 0008607 139.5086 220.6808 15.50934559127893
HORS 4 (RS82S)          
1 61754U 24199V   26105.89700361  .00025187  00000+0  38445-3 0  9995
2 61754  97.3034 341.5258 0008100 135.5332 224.6573 15.54393980127950
HORIZON (RS59S)         
1 61757U 24199Y   26105.93501266  .00192925  00000+0  82085-3 0  9990
2 61757  97.2953 346.7521 0006691 127.6549 232.5329 15.84727032128294
ARCTICSAT 1 (RS74S)     
1 61762U 24199AD  26105.91236653  .00106923  00000+0  70996-3 0  9990
2 61762  97.2997 345.8851 0007099 119.5464 240.6510 15.75120582128236
SIT-2086                
1 61764U 24199AF  26105.94050747  .00014264  00000+0  25982-3 0  9994
2 61764  97.3061 341.3784 0007956 128.5380 231.6586 15.49555282124785
HYPERVIEW 1G (RS66S)    
1 61772U 24199AP  26105.94175436  .00052557  00000+0  56324-3 0  9997
2 61772  97.3008 343.1226 0009314 134.8771 225.3245 15.63627148124914
ALTAIR (RS65S)          
1 61779U 24199AW  26105.91398016  .00005902  00000+0  17096-3 0  9997
2 61779  97.3122 335.7010 0013667 162.6631 197.5083 15.35862390127558
ASRTU-1 (AO-123)        
1 61781U 24199AY  26105.91787783  .00004506  00000+0  13569-3 0  9993
2 61781  97.3095 335.1619 0014514 165.4830 194.6834 15.34759756124372
TUSUR GO (RS78S)        
1 61782U 24199AZ  26105.90931370  .00256307  25449-4  94319-3 0  9995
2 61782  97.2910 345.8028 0006992 139.6885 220.4907 15.88206275125095
SAMSAT-IONOSPHERE (RS7*)
1 61784U 24199BB  26105.89438744  .00023971  00000+0  38993-3 0  9998
2 61784  97.3055 340.5308 0011076 143.2754 216.9260 15.52606209127889
